ONEWEB-0319             
1 49105U 21075AG  24271.33317625  .00000103  00000+0  23198-3 0  9999
2 49105  87.9112 130.9563 0001526  62.1859 297.9427 13.17670926150920
ONEWEB-0323             
1 49106U 21075AH  24271.53258976 -.00000208  00000+0 -61435-3 0  9999
2 49106  87.8853 115.6651 0001617  76.5696 283.5613 13.12442391153221
ONEWEB-0329             
1 49107U 21075AJ  24271.56939391  .00001405  00000+0  35873-2 0  9994
2 49107  87.9116 130.9131 0001683  70.9958 289.1355 13.17627835150933
ONEWEB-0330             
1 49108U 21075AK  24271.57107380  .00001509  00000+0  38542-2 0  9992
2 49108  87.9110 130.9145 0001753  71.5305 288.6017 13.17620337150977
ONEWEB-0292             
1 49186U 21083A   24271.46093031  .00000237  00000+0  61518-3 0  9999
2 49186  87.8854  85.1540 0001516  86.6333 273.4969 13.13470719148521
ONEWEB-0303             
1 49187U 21083B   24271.50276312  .00000055  00000+0  10730-3 0  9998
2 49187  87.9055 100.3929 0001479  81.4771 278.6529 13.18687773147257
ONEWEB-0306             
1 49188U 21083C   24271.49328485 -.00000159  00000+0 -43489-3 0  9990
2 49188  87.9055 100.3812 0001860  87.4165 272.7181 13.18684367148577
ONEWEB-0307             
1 49189U 21083D   24271.45537146  .00000057  00000+0  12151-3 0  9990
2 49189  87.8855  85.1562 0002046  88.7145 271.4218 13.13471343148521
